LEMUR-2-MYRA            
1 66787U 25276EC  26196.73658026  .00003488  00000+0  27979-3 0  9996
2 66787  97.5220 266.6868 0018676  52.7156 307.5768 15.00593508 34499
LEMUR-2 FIKRETDENGIZ    
1 67363U 26004A   26196.97442088  .00001654  00000+0  18371-3 0  9991
2 67363  97.8025 195.0951 0010145  53.5985 306.6166 14.88519982 27567
TWILIGHT-1 OBJECT B     
1 67364U 26004B   26196.94468942  .00000880  00000+0  10233-3 0  9995
2 67364  97.8075 195.0660 0009684  43.7671 316.4311 14.87794860 27569
LEMUR-2-MARIO-SOUSA     
1 67365U 26004C   26196.95417428  .00002372  00000+0  25951-3 0  9991
2 67365  97.7998 195.0701 0009802  54.9216 305.2919 14.88731264 27571
LEMUR-2-SONNENBLUME     
1 67367U 26004E   26196.95716687  .00001373  00000+0  15379-3 0  9995
2 67367  97.8001 195.0453 0009352  55.9946 304.2158 14.88455287 27576
LEMUR-2-WOBLER          
1 67368U 26004F   26196.94633085  .00002174  00000+0  23857-3 0  9995
2 67368  97.8049 195.1864 0009423  48.0590 312.1428 14.88700946 27576
LEMUR-2-GRAM-E-SUE      
1 67370U 26004H   26196.93851658  .00001220  00000+0  13685-3 0  9994
2 67370  97.7987 195.0435 0008555  58.9948 301.2109 14.88591282 27570
LEMUR-2-KATIE           
1 67387U 26004AA  26196.76036386  .00002563  00000+0  26980-3 0  9999
2 67387  97.8043 195.4216 0003470  32.8536 327.2897 14.90254887 27569
LEMUR-2-HCS-BAZUS       
1 67388U 26004AB  26196.89300270  .00001478  00000+0  15797-3 0  9998
2 67388  97.8038 195.5306 0002923  31.8037 328.3357 14.90263817 27580
