{"fetched_at":"2026-07-16T06:42:38.478Z","source":"https://celestrak.org/NORAD/elements/gp.php?GROUP=spire&FORMAT=JSON","constellation":"spire","records":[{"OBJECT_NAME":"LEMUR-2-MYRA","OBJECT_ID":"2025-276EC","EPOCH":"2026-07-15T17:40:40.534464","CLASSIFICATION_TYPE":"U","MEAN_MOTION":15.00593508,"ECCENTRICITY":0.00186767,"INCLINATION":97.522,"RA_OF_ASC_NODE":266.6868,"ARG_OF_PERICENTER":52.7156,"MEAN_ANOMALY":307.5768,"EPHEMERIS_TYPE":0,"NORAD_CAT_ID":66787,"ELEMENT_SET_NO":999,"REV_AT_EPOCH":3449,"BSTAR":0.00027978743,"MEAN_MOTION_DOT":0.00003488,"MEAN_MOTION_DDOT":0},{"OBJECT_NAME":"LEMUR-2 FIKRETDENGIZ","OBJECT_ID":"2026-004A","EPOCH":"2026-07-15T23:23:09.964032","CLASSIFICATION_TYPE":"U","MEAN_MOTION":14.88519982,"ECCENTRICITY":0.00101456,"INCLINATION":97.8025,"RA_OF_ASC_NODE":195.0951,"ARG_OF_PERICENTER":53.5985,"MEAN_ANOMALY":306.6166,"EPHEMERIS_TYPE":0,"NORAD_CAT_ID":67363,"ELEMENT_SET_NO":999,"REV_AT_EPOCH":2756,"BSTAR":0.00018370795,"MEAN_MOTION_DOT":0.00001654,"MEAN_MOTION_DDOT":0},{"OBJECT_NAME":"TWILIGHT-1 OBJECT B","OBJECT_ID":"2026-004B","EPOCH":"2026-07-15T22:40:21.165888","CLASSIFICATION_TYPE":"U","MEAN_MOTION":14.8779486,"ECCENTRICITY":0.00096849,"INCLINATION":97.8075,"RA_OF_ASC_NODE":195.066,"ARG_OF_PERICENTER":43.7671,"MEAN_ANOMALY":316.4311,"EPHEMERIS_TYPE":0,"NORAD_CAT_ID":67364,"ELEMENT_SET_NO":999,"REV_AT_EPOCH":2756,"BSTAR":0.00010232873,"MEAN_MOTION_DOT":0.0000088,"MEAN_MOTION_DDOT":0},{"OBJECT_NAME":"LEMUR-2-MARIO-SOUSA","OBJECT_ID":"2026-004C","EPOCH":"2026-07-15T22:54:00.657792","CLASSIFICATION_TYPE":"U","MEAN_MOTION":14.88731264,"ECCENTRICITY":0.00098022,"INCLINATION":97.7998,"RA_OF_ASC_NODE":195.0701,"ARG_OF_PERICENTER":54.9216,"MEAN_ANOMALY":305.2919,"EPHEMERIS_TYPE":0,"NORAD_CAT_ID":67365,"ELEMENT_SET_NO":999,"REV_AT_EPOCH":2757,"BSTAR":0.00025950613,"MEAN_MOTION_DOT":0.00002372,"MEAN_MOTION_DDOT":0},{"OBJECT_NAME":"LEMUR-2-SONNENBLUME","OBJECT_ID":"2026-004E","EPOCH":"2026-07-15T22:58:19.217568","CLASSIFICATION_TYPE":"U","MEAN_MOTION":14.88455287,"ECCENTRICITY":0.00093522,"INCLINATION":97.8001,"RA_OF_ASC_NODE":195.0453,"ARG_OF_PERICENTER":55.9946,"MEAN_ANOMALY":304.2158,"EPHEMERIS_TYPE":0,"NORAD_CAT_ID":67367,"ELEMENT_SET_NO":999,"REV_AT_EPOCH":2757,"BSTAR":0.00015379351,"MEAN_MOTION_DOT":0.00001373,"MEAN_MOTION_DDOT":0},{"OBJECT_NAME":"LEMUR-2-WOBLER","OBJECT_ID":"2026-004F","EPOCH":"2026-07-15T22:42:42.985440","CLASSIFICATION_TYPE":"U","MEAN_MOTION":14.88700946,"ECCENTRICITY":0.00094231,"INCLINATION":97.8049,"RA_OF_ASC_NODE":195.1864,"ARG_OF_PERICENTER":48.059,"MEAN_ANOMALY":312.1428,"EPHEMERIS_TYPE":0,"NORAD_CAT_ID":67368,"ELEMENT_SET_NO":999,"REV_AT_EPOCH":2757,"BSTAR":0.0002385745,"MEAN_MOTION_DOT":0.00002174,"MEAN_MOTION_DDOT":0},{"OBJECT_NAME":"LEMUR-2-GRAM-E-SUE","OBJECT_ID":"2026-004H","EPOCH":"2026-07-15T22:31:27.832512","CLASSIFICATION_TYPE":"U","MEAN_MOTION":14.88591282,"ECCENTRICITY":0.00085555,"INCLINATION":97.7987,"RA_OF_ASC_NODE":195.0435,"ARG_OF_PERICENTER":58.9948,"MEAN_ANOMALY":301.2109,"EPHEMERIS_TYPE":0,"NORAD_CAT_ID":67370,"ELEMENT_SET_NO":999,"REV_AT_EPOCH":2757,"BSTAR":0.00013685027,"MEAN_MOTION_DOT":0.0000122,"MEAN_MOTION_DDOT":0},{"OBJECT_NAME":"LEMUR-2-KATIE","OBJECT_ID":"2026-004AA","EPOCH":"2026-07-15T18:14:55.437504","CLASSIFICATION_TYPE":"U","MEAN_MOTION":14.90254887,"ECCENTRICITY":0.00034704,"INCLINATION":97.8043,"RA_OF_ASC_NODE":195.4216,"ARG_OF_PERICENTER":32.8536,"MEAN_ANOMALY":327.2897,"EPHEMERIS_TYPE":0,"NORAD_CAT_ID":67387,"ELEMENT_SET_NO":999,"REV_AT_EPOCH":2756,"BSTAR":0.0002697952,"MEAN_MOTION_DOT":0.00002563,"MEAN_MOTION_DDOT":0},{"OBJECT_NAME":"LEMUR-2-HCS-BAZUS","OBJECT_ID":"2026-004AB","EPOCH":"2026-07-15T21:25:55.433280","CLASSIFICATION_TYPE":"U","MEAN_MOTION":14.90263817,"ECCENTRICITY":0.00029239,"INCLINATION":97.8038,"RA_OF_ASC_NODE":195.5306,"ARG_OF_PERICENTER":31.8037,"MEAN_ANOMALY":328.3357,"EPHEMERIS_TYPE":0,"NORAD_CAT_ID":67388,"ELEMENT_SET_NO":999,"REV_AT_EPOCH":2758,"BSTAR":0.00015797459,"MEAN_MOTION_DOT":0.00001478,"MEAN_MOTION_DDOT":0}]}
